#dP2022  6  7 18  0  0.00000000      96 __u+U ITR00 EXT  IAC
## 2213 237600.00000000   900.00000000 59737 0.7500000000000
+  116   C06C07C08C09C10C11C12C13C14C16C19C20C21C22C23C24C25
+        C26C27C28C29C30C32C33C34C35C36C37C38C39C40C41C42C43
+        C44C45C46E01E02E03E04E05E07E08E09E10E11E12E13E14E15
+        E18E19E21E24E25E26E27E30E31E33E34E36G01G02G03G04G05
+        G06G07G08G09G10G11G12G13G14G15G16G17G18G19G20G21G22
+        G23G24G25G26G27G28G29G30G31G32J02J03R01R02R03R04R05
+        R07R08R09R11R12R13R14R15R17R18R19R20R21R24  0  0  0
++         8  9 10  9 10  9  9  9  8  9  9  9  8  9  9  8 10
++         9  8  9  9  7  8  8  9  7  7  8  8  9  9  9  9  8
++        10 10  8  7  7  8  8  7  7  8  6  7  8  9  8  7  6
++         8  8  7  7  7  7  7  7  7  7  8  8  7  6  8  7  7
++         6  7  7  7  8  6  8  8  9  7  8  6  7  8  7  7  6
++         6  7  7  7  7  8  7  7  7  7  8  8  8  8  8  7  8
++         7  8  7  8  9 10  9  7  8  8  7  7  8  7  0  0  0
%c M  cc GPS ccc cccc cccc cccc cccc ccccc ccccc ccccc ccccc
%c cc cc ccc ccc cccc cccc cccc cccc ccccc ccccc ccccc ccccc
%f  0.0000000  0.000000000  0.00000000000  0.000000000000000
%f  0.0000000  0.000000000  0.00000000000  0.000000000000000
%i    0    0    0    0      0      0      0      0         0
%i    0    0    0    0      0      0      0      0         0
/* IAC                                ULTRA-RAPID PREDICTION
/* S/V CLOCKS ARE ALIGNED TO GNSS TIME                      
/* G:C1WC2W R:C1PC2P E:C1XC5X C:C2IC6I J:C1CC2S             
/* PCV:IGS14_2196 OL/AL:FES2004  NONE     YN ORB:CoN CLK:CoN
*  2022 06 08  3  0  0.00000000
PC06     63.138207  32966.671503 -26156.743950    144.828287
PC07 -14100.560318  27352.477176  28774.154821   -270.304432
PC08 -14276.499083  39556.219327  -4013.556915    352.090149
PC09   5359.141749  35864.970500 -20708.606673   -862.508330
PC10  -4531.399256  27735.015594  31606.665017    127.723994
PC11  -7746.429774  14388.501705  22682.121428    401.070738
PC12 -19144.605284  -2868.456242  20121.862112   -602.604247
PC13  -9354.663583  40073.903028  -9672.193498    -10.130612
PC14 -18236.332217  14026.131997 -15726.626057    496.194588
PC16  -2734.463773  30563.517790 -28629.151654    138.010106
PC19   8399.139305 -16136.139889  21197.897320    860.922471
PC20  24134.688345 -10494.490233   9353.627201   -949.271935
PC21 -26348.551085  -1924.342986   8963.191404   -442.661442
PC22 -12830.648835 -12707.191749  21270.236663   -965.469822
PC23   5226.350682  21216.746399  17365.418329   -932.779651
PC24 -17590.634781  15559.912149 -15094.227801   -971.715973
PC25  -7586.444486  26746.636374   2526.495296   -725.081007
PC26 -16328.035208  -2275.142631 -22527.299497    726.574204
PC27  21332.659098  11165.823569 -14119.050432    735.574472
PC28  15937.394772  22781.580889   2419.074698     76.012335
PC29  -1464.711230 -21112.838458 -18202.336266    565.421259
PC30  14781.894426  -6925.305978 -22642.941570    499.598590
PC32  26379.045284   1714.030672  -8951.239152   -966.875090
PC33  -8357.797438  16184.540981 -21126.278272   -968.377300
PC34 -14129.746775   7861.984390  22729.332195   -385.743897
PC35 -16076.453636 -22567.516783  -3481.448273    310.605775
PC36   8578.312738 -26477.803318  -1986.785125   -966.904358
PC37  15832.502791   4022.087069  22642.471917   -908.719951
PC38 -17892.690521  38073.193557   3876.229517      1.602992
PC39  -6642.563514  26800.706998 -31792.812109     34.982760
PC40 -21055.095581  21026.164644  29786.204961    275.626512
PC41  12427.151991  12857.068725 -21372.122187   -969.113495
PC42 -24683.603356   9945.712223  -8310.151240   -962.960275
PC43    676.294257  20830.740470  18532.465841   -919.456602
PC44 -21798.353151 -10588.450837  13849.319601    685.295782
PC45  -5363.184402 -20959.487923 -17610.061377    777.764650
PC46  17175.295278 -16937.898556  14008.015183   -367.287438
PE01  24494.784165 -15958.529872   4633.505168   -491.934321
PE02 -24457.758626  16077.096550  -4465.142432    304.273380
PE03 -21982.935283   6028.078346 -18871.090811   -566.536368
PE04   3234.588492 -16927.349592  24078.013276  -1045.263026
PE05 -28197.905046  -8652.445040  -2449.254080   -174.197638
PE07  17937.209241  18057.383547 -15111.247475   -676.304072
PE08  -2837.524567  16884.027169 -24140.296789   -542.815776
PE09 -18053.227249 -17906.007857  15147.793269   -545.856940
PE10  -4375.008280 -29249.029684  -1239.208311   -518.247872
PE11 -10455.015917 -26196.169407   8992.487821   3421.589222
PE12   2250.610716 -27546.431075 -10634.083802   4574.038093
PE13  10138.931253  26514.851396  -8374.998274    429.165020
PE14   8645.408706 -18059.481894 -24038.875451  -1814.267343
PE15  -2245.931145  27468.235375  10788.058937    740.761020
PE18   6887.297521  19420.991606  15686.970344  -1355.344812
PE19  23615.368392  -4097.688317  17382.744057  -5437.031735
PE21  22200.392303  -1037.860844  19551.444755   -738.873408
PE24  -5949.446362 -16301.634138 -23988.584394   -658.682414
PE25 -22067.673677    792.564214 -19706.397984   -576.794709
PE26  16665.672923   8983.061620 -22756.787958  -1237.185444
PE27   7078.851005  15501.639404  24206.619053   -317.071751
PE30 -12984.025261  22750.023474  13787.954006   -574.863089
PE31  12071.121371 -22761.081356 -14565.442608   -497.914758
PE33  13238.701374 -12228.818417 -23486.541613   -455.852908
PE34 -13134.615965  12455.919591  23408.808768   -521.056216
PE36 -16470.369528 -10021.889439  22458.933586   -384.991520
PG01 -13142.003271   9777.380514  20519.437919    345.902895
PG02  13933.902292  13522.674363 -17402.534097   -652.862629
PG03 -23125.640315  12509.374328   3172.064926   -271.481996
PG04 -20034.640667   2726.598650 -17256.570246   -159.357220
PG05  21246.720855  -1311.744427 -16146.050469    -84.735078
PG06   6020.973945  24763.676567  -7274.715276    334.774950
PG07  -6085.905355  23343.539663 -10120.487073    321.998536
PG08 -24298.833071  -3547.806364  10521.129964    -71.240781
PG09 -11028.179079  11470.166623 -21333.871254   -330.274055
PG10   2751.742265 -17743.993436  19616.707968   -446.211530
PG11  12579.373784  14834.575212 -18098.855720    -16.764410
PG12  24225.270182  -8402.155780   6439.765624   -227.742091
PG13  22973.397746  13055.115593   3358.432220    325.955290
PG14  -4721.872446  18282.497759  18640.472925   -111.028412
PG15  24395.288845    378.731728  10448.850496    -54.965416
PG16 -18421.683758  -4936.035321 -18946.050870   -507.314953
PG17   6007.368936  18197.642352  18797.653245    622.356807
PG18   6678.119572 -23203.475216 -10946.999882    148.340011
PG19  13914.904287  18943.565290  12319.314354    167.810550
PG20  13920.936701   8035.355984 -21109.487354    512.899483
PG21 -15753.237841  -1457.864903  22031.290912    161.303084
PG22 -15829.024895 -18691.617525  10908.548456    272.173832
PG23  13220.165712 -19419.440063  12279.522943    -26.767164
PG24  14872.829780  -5585.619919  20944.176358    225.480210
PG25  18623.965808 -17720.774662  -6366.471757    334.671211
PG26  -9693.455161 -12427.243818 -21468.334790    210.938434
PG27 -23386.303957 -12975.112471  -1517.695987    213.344150
PG28   4160.110250  14966.072075  22075.579292    342.438156
PG29  11424.651754 -10144.840320 -21787.300036   -521.829379
PG30    214.654263  26396.121929  -1061.094628   -530.684774
PG31  -7655.313739 -23263.439148  -9804.103474   -180.906621
PG32  -9565.263753 -18174.547429  17090.615894   -145.879172
PJ02 -29249.629562  30329.533621   5848.234675     -0.524630
PJ03 -24555.201944  24689.569797  28851.557440     -2.700118
PR01 -25498.248085    127.144649   -226.026735      9.632871
PR02 -16452.814787   7886.110219 -17808.245345    520.671124
PR03   1989.719147  10914.314035 -22917.601290     58.045127
PR04  18963.519920   7641.728993 -15216.348841    145.381258
PR05  25479.959358    352.683048    897.165473     94.234965
PR07  -2904.790503 -10931.069076  22909.141374     36.134387
PR08 -19072.640537  -7657.407612  15184.624643    -65.586185
PR09  14358.128337 -20733.235949   4110.273773     59.326573
PR11  -6145.881311 -10488.667747 -22414.799294     36.847093
PR12 -15178.085234   7659.924671 -18994.506930     18.779486
PR13 -14768.456325  20074.356683  -5445.847217    -23.347522
PR14  -5360.028541  21295.006861  12976.066568     25.339753
PR15   6727.226805   9816.520731  22582.644348     95.548948
PR17   6805.088885  22371.037299  10239.271044    533.005277
PR18  14052.530297  20224.055060  -6538.544396    119.544105
PR19  14040.093708   8999.718482 -19309.978620   -191.904562
PR20   5412.631796 -11292.378661 -22230.327719    -72.187177
PR21  -7576.766280 -22674.748592  -8868.050140   -307.658621
PR24  -5112.207240  12214.204029  21813.941239     97.611570
EOF
